[{"OBJECT_NAME":"NOAA 18","OBJECT_ID":"2005-018A","EPOCH":"2026-03-15T15:05:00.731616","MEAN_MOTION":14.13711974,"ECCENTRICITY":0.00151299,"INCLINATION":98.8148,"RA_OF_ASC_NODE":155.6524,"ARG_OF_PERICENTER":59.6811,"MEAN_ANOMALY":300.5856,"EPHEMERIS_TYPE":0,"CLASSIFICATION_TYPE":"U","NORAD_CAT_ID":28654,"ELEMENT_SET_NO":999,"REV_AT_EPOCH":7309,"BSTAR":4.4445833e-5,"MEAN_MOTION_DOT":4.0e-7,"MEAN_MOTION_DDOT":0},{"OBJECT_NAME":"NOAA 19","OBJECT_ID":"2009-005A","EPOCH":"2026-03-15T14:39:26.100864","MEAN_MOTION":14.13457816,"ECCENTRICITY":0.0012745,"INCLINATION":98.9596,"RA_OF_ASC_NODE":145.3915,"ARG_OF_PERICENTER":296.7233,"MEAN_ANOMALY":63.2634,"EPHEMERIS_TYPE":0,"CLASSIFICATION_TYPE":"U","NORAD_CAT_ID":33591,"ELEMENT_SET_NO":999,"REV_AT_EPOCH":88126,"BSTAR":4.1535571e-5,"MEAN_MOTION_DOT":3.3e-7,"MEAN_MOTION_DDOT":0},{"OBJECT_NAME":"SUOMI NPP","OBJECT_ID":"2011-061A","EPOCH":"2026-03-15T14:14:35.782080","MEAN_MOTION":14.19545328,"ECCENTRICITY":7.317e-5,"INCLINATION":98.7876,"RA_OF_ASC_NODE":16.1496,"ARG_OF_PERICENTER":193.1421,"MEAN_ANOMALY":166.9737,"EPHEMERIS_TYPE":0,"CLASSIFICATION_TYPE":"U","NORAD_CAT_ID":37849,"ELEMENT_SET_NO":999,"REV_AT_EPOCH":74516,"BSTAR":6.1152152e-5,"MEAN_MOTION_DOT":8.5e-7,"MEAN_MOTION_DDOT":0},{"OBJECT_NAME":"NOAA 20 (JPSS-1)","OBJECT_ID":"2017-073A","EPOCH":"2026-03-15T14:35:46.460832","MEAN_MOTION":14.19537659,"ECCENTRICITY":0.00014636,"INCLINATION":98.7698,"RA_OF_ASC_NODE":14.9367,"ARG_OF_PERICENTER":129.6094,"MEAN_ANOMALY":230.5212,"EPHEMERIS_TYPE":0,"CLASSIFICATION_TYPE":"U","NORAD_CAT_ID":43013,"ELEMENT_SET_NO":999,"REV_AT_EPOCH":43119,"BSTAR":4.7614898e-5,"MEAN_MOTION_DOT":5.6e-7,"MEAN_MOTION_DDOT":0}]
