NOAA 18                 
1 28654U 05018A   26074.62848069  .00000040  00000+0  44446-4 0  9990
2 28654  98.8148 155.6524 0015129  59.6811 300.5856 14.13711974 73095
NOAA 19                 
1 33591U 09005A   26074.61071876  .00000033  00000+0  41536-4 0  9998
2 33591  98.9596 145.3915 0012745 296.7233  63.2634 14.13457816881267
SUOMI NPP               
1 37849U 11061A   26074.59346970  .00000085  00000+0  61152-4 0  9993
2 37849  98.7876  16.1496 0000731 193.1421 166.9737 14.19545328745161
NOAA 20 (JPSS-1)        
1 43013U 17073A   26074.60817663  .00000056  00000+0  47615-4 0  9992
2 43013  98.7698  14.9367 0001463 129.6094 230.5212 14.19537659431198
